H1 CPF  2  DGF 2024 03 14 10 074 01 lageos2    NONE      
H2  9207002 5986    22195 2024 03 14 00 00 00 2024 03 21 00 00 00    60 1 1  0 0 0 1
H5  0.2443
H9
10 0 60384  36000.000000  0      -4376494.066      11342078.229       2043365.409
10 0 60384  36060.000000  0      -4503923.643      11240639.320       2305979.440
10 0 60384  36120.000000  0      -4628907.660      11131906.207       2566824.860
10 0 60384  36180.000000  0      -4751415.667      11015937.055       2825701.253
10 0 60384  36240.000000  0      -4871418.389      10892794.959       3082409.575
10 0 60384  36300.000000  0      -4988887.703      10762547.917       3336752.294
10 0 60384  36360.000000  0      -5103796.608      10625268.800       3588533.524
10 0 60384  36420.000000  0      -5216119.193      10481035.325       3837559.160
10 0 60384  36480.000000  0      -5325830.616      10329930.020       4083637.013
10 0 60384  36540.000000  0      -5432907.070      10172040.187       4326576.941
10 0 60384  36600.000000  0      -5537325.758      10007457.862       4566190.986
10 0 60384  36660.000000  0      -5639064.862       9836279.775       4802293.505
10 0 60384  36720.000000  0      -5738103.517       9658607.303       5034701.295
10 0 60384  36780.000000  0      -5834421.784       9474546.422       5263233.732
10 0 60384  36840.000000  0      -5928000.622       9284207.657       5487712.894
10 0 60384  36900.000000  0      -6018821.857       9087706.024       5707963.691
10 0 60384  36960.000000  0      -6106868.161       8885160.978       5923813.990
10 0 60384  37020.000000  0      -6192123.023       8676696.347       6135094.744
10 0 60384  37080.000000  0      -6274570.722       8462440.276       6341640.114
10 0 60384  37140.000000  0      -6354196.303       8242525.151       6543287.590
10 0 60384  37200.000000  0      -6430985.553       8017087.538       6739878.116
10 0 60384  37260.000000  0      -6504924.974       7786268.107       6931256.212
10 0 60384  37320.000000  0      -6576001.761       7550211.554       7117270.084
10 0 60384  37380.000000  0      -6644203.781       7309066.529       7297771.751
10 0 60384  37440.000000  0      -6709519.545       7062985.546       7472617.155
10 0 60384  37500.000000  0      -6771938.194       6812124.906       7641666.275
10 0 60384  37560.000000  0      -6831449.473       6556644.603       7804783.240
10 0 60384  37620.000000  0      -6888043.714       6296708.235       7961836.438
10 0 60384  37680.000000  0      -6941711.816       6032482.914       8112698.625
10 0 60384  37740.000000  0      -6992445.226       5764139.161       8257247.029
10 0 60384  37800.000000  0      -7040235.924       5491850.812       8395363.456
10 0 60384  37860.000000  0      -7085076.407       5215794.913       8526934.391
10 0 60384  37920.000000  0      -7126959.673       4936151.613       8651851.093
10 0 60384  37980.000000  0      -7165879.207       4653104.055       8770009.700
10 0 60384  38040.000000  0      -7201828.967       4366838.263       8881311.314
10 0 60384  38100.000000  0      -7234803.377       4077543.028       8985662.100
10 0 60384  38160.000000  0      -7264797.311       3785409.789       9082973.370
10 0 60384  38220.000000  0      -7291806.085       3490632.512       9173161.671
10 0 60384  38280.000000  0      -7315825.452       3193407.564       9256148.868
10 0 60384  38340.000000  0      -7336851.589       2893933.589       9331862.225
10 0 60384  38400.000000  0      -7354881.096       2592411.375       9400234.479
10 0 60384  38460.000000  0      -7369910.988       2289043.723       9461203.916
10 0 60384  38520.000000  0      -7381938.696       1984035.312       9514714.443
10 0 60384  38580.000000  0      -7390962.059       1677592.560       9560715.650
10 0 60384  38640.000000  0      -7396979.325       1369923.481       9599162.877
10 0 60384  38700.000000  0      -7399989.153       1061237.547       9630017.275
10 0 60384  38760.000000  0      -7399990.614        751745.535       9653245.856
10 0 60384  38820.000000  0      -7396983.192        441659.385       9668821.550
10 0 60384  38880.000000  0      -7390966.787        131192.045       9676723.254
10 0 60384  38940.000000  0      -7381941.725       -179442.679       9676935.869
10 0 60384  39000.000000  0      -7369908.758       -490030.282       9669450.347
10 0 60384  39060.000000  0      -7354869.077       -800355.714       9654263.720
10 0 60384  39120.000000  0      -7336824.318      -1110203.541       9631379.136
10 0 60384  39180.000000  0      -7315776.571      -1419358.106       9600805.882
10 0 60384  39240.000000  0      -7291728.393      -1727603.694       9562559.404
10 0 60384  39300.000000  0      -7264682.821      -2034724.694       9516661.328
10 0 60384  39360.000000  0      -7234643.381      -2340505.765       9463139.468
10 0 60384  39420.000000  0      -7201614.109      -2644732.008       9402027.834
10 0 60384  39480.000000  0      -7165599.559      -2947189.131       9333366.632
10 0 60384  39540.000000  0      -7126604.827      -3247663.622       9257202.263
10 0 60384  39600.000000  0      -7084635.560      -3545942.919       9173587.311
10 0 60384  39660.000000  0      -7039697.983      -3841815.581       9082580.532
10 0 60384  39720.000000  0      -6991798.912      -4135071.464       8984246.830
10 0 60384  39780.000000  0      -6940945.779      -4425501.892       8878657.234
10 0 60384  39840.000000  0      -6887146.648      -4712899.831       8765888.868
10 0 60384  39900.000000  0      -6830410.239      -4997060.063       8646024.909
10 0 60384  39960.000000  0      -6770745.953      -5277779.359       8519154.551
10 0 60384  40020.000000  0      -6708163.891      -5554856.656       8385372.952
10 0 60384  40080.000000  0      -6642674.880      -5828093.227       8244781.182
10 0 60384  40140.000000  0      -6574290.498      -6097292.853       8097486.161
10 0 60384  40200.000000  0      -6503023.095      -6362261.997       7943600.593
10 0 60384  40260.000000  0      -6428885.823      -6622809.976       7783242.895
10 0 60384  40320.000000  0      -6351892.659      -6878749.126       7616537.119
10 0 60384  40380.000000  0      -6272058.432      -7129894.975       7443612.865
10 0 60384  40440.000000  0      -6189398.847      -7376066.404       7264605.196
10 0 60384  40500.000000  0      -6103930.516      -7617085.818       7079654.534
10 0 60384  40560.000000  0      -6015670.978      -7852779.303       6888906.566
10 0 60384  40620.000000  0      -5924638.731      -8082976.790       6692512.133
10 0 60384  40680.000000  0      -5830853.256      -8307512.209       6490627.112
10 0 60384  40740.000000  0      -5734335.044      -8526223.646       6283412.302
10 0 60384  40800.000000  0      -5635105.622      -8738953.493       6071033.296
10 0 60384  40860.000000  0      -5533187.580      -8945548.598       5853660.349
10 0 60384  40920.000000  0      -5428604.594      -9145860.410       5631468.242
10 0 60384  40980.000000  0      -5321381.454      -9339745.116       5404636.141
10 0 60384  41040.000000  0      -5211544.090      -9527063.783       5173347.446
10 0 60384  41100.000000  0      -5099119.590      -9707682.491       4937789.641
10 0 60384  41160.000000  0      -4984136.233      -9881472.456       4698154.134
10 0 60384  41220.000000  0      -4866623.504     -10048310.159       4454636.094
10 0 60384  41280.000000  0      -4746612.119     -10208077.464       4207434.285
10 0 60384  41340.000000  0      -4624134.051     -10360661.731       3956750.890
10 0 60384  41400.000000  0      -4499222.542     -10505955.926       3702791.337
10 0 60384  41460.000000  0      -4371912.132     -10643858.722       3445764.117
10 0 60384  41520.000000  0      -4242238.670     -10774274.600       3185880.594
10 0 60384  41580.000000  0      -4110239.337     -10897113.939       2923354.825
10 0 60384  41640.000000  0      -3975952.662     -11012293.100       2658403.356
10 0 60384  41700.000000  0      -3839418.534     -11119734.512       2391245.034
10 0 60384  41760.000000  0      -3700678.219     -11219366.737       2122100.804
10 0 60384  41820.000000  0      -3559774.374     -11311124.546       1851193.506
10 0 60384  41880.000000  0      -3416751.057     -11394948.973       1578747.669
10 0 60384  41940.000000  0      -3271653.737     -11470787.370       1304989.309
10 0 60384  42000.000000  0      -3124529.305     -11538593.457       1030145.709
10 0 60384  42060.000000  0      -2975426.077     -11598327.362        754445.219
10 0 60384  42120.000000  0      -2824393.806     -11649955.650        478117.032
10 0 60384  42180.000000  0      -2671483.684     -11693451.353        201390.979
10 0 60384  42240.000000  0      -2516748.342     -11728793.991        -75502.695
10 0 60384  42300.000000  0      -2360241.855     -11755969.578       -352333.541
10 0 60384  42360.000000  0      -2202019.741     -11774970.634       -628871.127
10 0 60384  42420.000000  0      -2042138.959     -11785796.177       -904885.250
10 0 60384  42480.000000  0      -1880657.904     -11788451.720      -1180146.159
10 0 60384  42540.000000  0      -1717636.404     -11782949.249      -1454424.765
10 0 60384  42600.000000  0      -1553135.710     -11769307.200      -1727492.861
10 0 60384  42660.000000  0      -1387218.494     -11747550.435      -1999123.333
10 0 60384  42720.000000  0      -1219948.829     -11717710.195      -2269090.376
10 0 60384  42780.000000  0      -1051392.188     -11679824.064      -2537169.701
10 0 60384  42840.000000  0       -881615.420     -11633935.911      -2803138.749
10 0 60384  42900.000000  0       -710686.742     -11580095.840      -3066776.896
10 0 60384  42960.000000  0       -538675.720     -11518360.115      -3327865.657
10 0 60384  43020.000000  0       -365653.249     -11448791.099      -3586188.889
10 0 60384  43080.000000  0       -191691.535     -11371457.170      -3841532.989
10 0 60384  43140.000000  0        -16864.069     -11286432.641      -4093687.091
99